API VERSION: 1.2
API SOURCE: NASA/JPL Horizons API



*******************************************************************************
Ephemeris / API_USER Mon Oct 30 14:04:41 2023 Pasadena, USA      / Horizons    
*******************************************************************************
Target body name: Moon (301)                      {source: DE441}
Center body name: Earth (399)                     {source: DE441}
Center-site name: GEOCENTRIC
*******************************************************************************
Start time      : A.D. 2043-Jan-01 00:00:00.0000 UT      
Stop  time      : A.D. 2044-Jan-01 00:00:00.0000 UT      
Step-size       : 60 minutes
*******************************************************************************
Target pole/equ : MOON_ME                         {East-longitude positive}
Target radii    : 1737.4, 1737.4, 1737.4 km       {Equator_a, b, pole_c}       
Center geodetic : 0.0, 0.0, -6378.137             {E-lon(deg),Lat(deg),Alt(km)}
Center cylindric: 0.0, 0.0, 0.0                   {E-lon(deg),Dxy(km),Dz(km)}
Center pole/equ : ITRF93                          {East-longitude positive}
Center radii    : 6378.137, 6378.137, 6356.752 km {Equator_a, b, pole_c}       
Target primary  : Earth
Vis. interferer : MOON (R_eq= 1737.400) km        {source: DE441}
Rel. light bend : Sun                             {source: DE441}
Rel. lght bnd GM: 1.3271E+11 km^3/s^2                                          
Atmos refraction: NO (AIRLESS)
RA format       : HMS
Time format     : CAL 
Calendar mode   : Mixed Julian/Gregorian
EOP file        : eop.231027.p240119                                           
EOP coverage    : DATA-BASED 1962-JAN-20 TO 2023-OCT-27. PREDICTS-> 2024-JAN-18
Units conversion: 1 au= 149597870.700 km, c= 299792.458 km/s, 1 day= 86400.0 s 
Table cut-offs 1: Elevation (-90.0deg=NO ),Airmass (>38.000=NO), Daylight (NO )
Table cut-offs 2: Solar elongation (  0.0,180.0=NO ),Local Hour Angle( 0.0=NO )
Table cut-offs 3: RA/DEC angular rate (     0.0=NO )                           
Table format    : Comma Separated Values (spreadsheet)
***********************************************************************************************************************************************
 Date__(UT)__HR:MN, , , R.A._(ICRF), DEC__(ICRF),      Illu%,  ObsSub-LON, ObsSub-LAT,  SunSub-LON, SunSub-LAT,    NP.ang,  NP.dist,     S-T-O,
***********************************************************************************************************************************************
$$SOE
 2043-Nov-17 21:00, , , 04 23 59.55, +26 28 17.4,   98.39628,    0.962298,  -6.250871,  347.242851,  -1.307191,  351.3641, -997.349,   14.5560,
 2043-Nov-17 22:00, , , 04 26 47.15, +26 35 27.1,   98.26946,    1.052855,  -6.273694,  346.737266,  -1.307979,  351.6076, -997.188,   15.1236,
 2043-Nov-17 23:00, , , 04 29 35.05, +26 42 24.4,   98.13752,    1.143287,  -6.295724,  346.231680,  -1.308766,  351.8526, -997.019,   15.6929,
 2043-Nov-18 00:00, , , 04 32 23.23, +26 49 09.1,   98.00047,    1.233581,  -6.316958,  345.726090,  -1.309551,  352.0992, -996.842,   16.2636,
 2043-Nov-18 01:00, , , 04 35 11.69, +26 55 41.3,   97.85835,    1.323721,  -6.337394,  345.220497,  -1.310336,  352.3472, -996.656,   16.8355,
 2043-Nov-18 02:00, , , 04 38 00.41, +27 02 00.8,   97.71117,    1.413693,  -6.357030,  344.714902,  -1.311119,  352.5967, -996.464,   17.4085,
 2043-Nov-18 03:00, , , 04 40 49.39, +27 08 07.5,   97.55896,    1.503483,  -6.375862,  344.209303,  -1.311902,  352.8475, -996.263,   17.9825,
 2043-Nov-18 04:00, , , 04 43 38.60, +27 14 01.4,   97.40175,    1.593075,  -6.393891,  343.703701,  -1.312683,  353.0997, -996.054,   18.5573,
 2043-Nov-18 05:00, , , 04 46 28.04, +27 19 42.5,   97.23955,    1.682456,  -6.411113,  343.198096,  -1.313463,  353.3531, -995.838,   19.1329,
 2043-Nov-18 06:00, , , 04 49 17.69, +27 25 10.6,   97.07241,    1.771612,  -6.427528,  342.692487,  -1.314242,  353.6077, -995.615,   19.7091,
 2043-Nov-18 07:00, , , 04 52 07.54, +27 30 25.6,   96.90034,    1.860527,  -6.443133,  342.186874,  -1.315020,  353.8635, -995.384,   20.2858,
 2043-Nov-18 08:00, , , 04 54 57.58, +27 35 27.6,   96.72338,    1.949189,  -6.457928,  341.681257,  -1.315797,  354.1205, -995.145,   20.8630,
 2043-Nov-18 09:00, , , 04 57 47.79, +27 40 16.5,   96.54155,    2.037582,  -6.471912,  341.175637,  -1.316572,  354.3784, -994.900,   21.4405,
 2043-Nov-18 10:00, , , 05 00 38.16, +27 44 52.2,   96.35488,    2.125694,  -6.485084,  340.670012,  -1.317346,  354.6374, -994.647,   22.0184,
 2043-Nov-18 11:00, , , 05 03 28.68, +27 49 14.7,   96.16342,    2.213509,  -6.497443,  340.164383,  -1.318120,  354.8974, -994.386,   22.5965,
 2043-Nov-18 12:00, , , 05 06 19.33, +27 53 23.9,   95.96718,    2.301014,  -6.508989,  339.658749,  -1.318891,  355.1582, -994.119,   23.1749,
 2043-Nov-18 13:00, , , 05 09 10.10, +27 57 19.8,   95.76621,    2.388196,  -6.519721,  339.153111,  -1.319662,  355.4198, -993.845,   23.7534,
 2043-Nov-18 14:00, , , 05 12 00.97, +28 01 02.4,   95.56053,    2.475041,  -6.529640,  338.647469,  -1.320432,  355.6823, -993.563,   24.3320,
 2043-Nov-18 15:00, , , 05 14 51.94, +28 04 31.6,   95.35018,    2.561536,  -6.538744,  338.141821,  -1.321200,  355.9454, -993.275,   24.9106,
 2043-Nov-18 16:00, , , 05 17 42.98, +28 07 47.5,   95.13520,    2.647667,  -6.547035,  337.636169,  -1.321967,  356.2092, -992.980,   25.4893,
 2043-Nov-18 17:00, , , 05 20 34.08, +28 10 49.9,   94.91562,    2.733420,  -6.554513,  337.130511,  -1.322733,  356.4737, -992.679,   26.0680,
 2043-Nov-18 18:00, , , 05 23 25.22, +28 13 38.9,   94.69148,    2.818783,  -6.561177,  336.624848,  -1.323498,  356.7386, -992.370,   26.6466,
 2043-Nov-18 19:00, , , 05 26 16.40, +28 16 14.4,   94.46281,    2.903743,  -6.567030,  336.119180,  -1.324261,  357.0041, -992.056,   27.2251,
 2043-Nov-18 20:00, , , 05 29 07.59, +28 18 36.5,   94.22966,    2.988287,  -6.572071,  335.613507,  -1.325023,  357.2699, -991.734,   27.8035,
 2043-Nov-18 21:00, , , 05 31 58.79, +28 20 45.1,   93.99206,    3.072402,  -6.576301,  335.107828,  -1.325784,  357.5361, -991.407,   28.3818,
 2043-Nov-18 22:00, , , 05 34 49.97, +28 22 40.3,   93.75005,    3.156075,  -6.579723,  334.602143,  -1.326543,  357.8027, -991.073,   28.9599,
 2043-Nov-18 23:00, , , 05 37 41.13, +28 24 22.0,   93.50367,    3.239295,  -6.582336,  334.096452,  -1.327302,  358.0694, -990.733,   29.5378,
 2043-Nov-19 00:00, , , 05 40 32.24, +28 25 50.2,   93.25297,    3.322048,  -6.584142,  333.590756,  -1.328059,  358.3364, -990.387,   30.1155,
 2043-Nov-19 01:00, , , 05 43 23.30, +28 27 05.0,   92.99798,    3.404323,  -6.585144,  333.085053,  -1.328815,  358.6034, -990.034,   30.6929,
 2043-Nov-19 02:00, , , 05 46 14.28, +28 28 06.3,   92.73874,    3.486107,  -6.585342,  332.579344,  -1.329569,  358.8706, -989.676,   31.2700,
 2043-Nov-19 03:00, , , 05 49 05.18, +28 28 54.2,   92.47530,    3.567389,  -6.584739,  332.073629,  -1.330323,  359.1377, -989.312,   31.8469,
 2043-Nov-19 04:00, , , 05 51 55.98, +28 29 28.8,   92.20771,    3.648158,  -6.583336,  331.567908,  -1.331075,  359.4048, -988.943,   32.4234,
 2043-Nov-19 05:00, , , 05 54 46.66, +28 29 49.9,   91.93599,    3.728401,  -6.581136,  331.062179,  -1.331825,  359.6717, -988.567,   32.9996,
 2043-Nov-19 06:00, , , 05 57 37.20, +28 29 57.7,   91.66021,    3.808107,  -6.578142,  330.556445,  -1.332575,  359.9385, -988.186,   33.5755,
 2043-Nov-19 07:00, , , 06 00 27.61, +28 29 52.2,   91.38039,    3.887265,  -6.574355,  330.050703,  -1.333323,    0.2050, -987.800,   34.1510,
 2043-Nov-19 08:00, , , 06 03 17.85, +28 29 33.4,   91.09660,    3.965864,  -6.569778,  329.544954,  -1.334070,    0.4712, -987.408,   34.7261,
 2043-Nov-19 09:00, , , 06 06 07.92, +28 29 01.3,   90.80886,    4.043893,  -6.564414,  329.039199,  -1.334816,    0.7371, -987.011,   35.3008,
 2043-Nov-19 10:00, , , 06 08 57.80, +28 28 16.1,   90.51723,    4.121341,  -6.558266,  328.533436,  -1.335560,    1.0026, -986.608,   35.8750,
 2043-Nov-19 11:00, , , 06 11 47.48, +28 27 17.7,   90.22176,    4.198199,  -6.551337,  328.027666,  -1.336304,    1.2676, -986.201,   36.4489,
 2043-Nov-19 12:00, , , 06 14 36.95, +28 26 06.2,   89.92249,    4.274455,  -6.543629,  327.521889,  -1.337046,    1.5320, -985.788,   37.0223,
 2043-Nov-19 13:00, , , 06 17 26.18, +28 24 41.7,   89.61946,    4.350099,  -6.535147,  327.016105,  -1.337786,    1.7959, -985.371,   37.5952,
 2043-Nov-19 14:00, , , 06 20 15.18, +28 23 04.2,   89.31272,    4.425122,  -6.525894,  326.510312,  -1.338526,    2.0591, -984.948,   38.1677,
 2043-Nov-19 15:00, , , 06 23 03.91, +28 21 13.7,   89.00233,    4.499514,  -6.515873,  326.004513,  -1.339264,    2.3217, -984.521,   38.7396,
 2043-Nov-19 16:00, , , 06 25 52.38, +28 19 10.4,   88.68833,    4.573265,  -6.505088,  325.498705,  -1.340001,    2.5835, -984.089,   39.3111,
 2043-Nov-19 17:00, , , 06 28 40.56, +28 16 54.3,   88.37077,    4.646366,  -6.493542,  324.992889,  -1.340737,    2.8445, -983.653,   39.8821,
 2043-Nov-19 18:00, , , 06 31 28.45, +28 14 25.5,   88.04969,    4.718808,  -6.481240,  324.487066,  -1.341472,    3.1046, -983.212,   40.4525,
 2043-Nov-19 19:00, , , 06 34 16.03, +28 11 44.0,   87.72515,    4.790581,  -6.468185,  323.981235,  -1.342205,    3.3638, -982.767,   41.0224,
 2043-Nov-19 20:00, , , 06 37 03.29, +28 08 49.9,   87.39719,    4.861677,  -6.454382,  323.475395,  -1.342937,    3.6221, -982.317,   41.5917,
 2043-Nov-19 21:00, , , 06 39 50.22, +28 05 43.4,   87.06586,    4.932087,  -6.439835,  322.969547,  -1.343668,    3.8794, -981.863,   42.1605,
 2043-Nov-19 22:00, , , 06 42 36.81, +28 02 24.4,   86.73121,    5.001803,  -6.424548,  322.463691,  -1.344398,    4.1356, -981.405,   42.7288,
 2043-Nov-19 23:00, , , 06 45 23.04, +27 58 53.1,   86.39330,    5.070816,  -6.408526,  321.957826,  -1.345127,    4.3907, -980.943,   43.2964,
